OBJECT_NAME,OBJECT_ID,EPOCH,MEAN_MOTION,ECCENTRICITY,INCLINATION,RA_OF_ASC_NODE,ARG_OF_PERICENTER,MEAN_ANOMALY,EPHEMERIS_TYPE,CLASSIFICATION_TYPE,NORAD_CAT_ID,ELEMENT_SET_NO,REV_AT_EPOCH,BSTAR,MEAN_MOTION_DOT,MEAN_MOTION_DDOT
COSMO-SKYMED 1,2007-023A,2026-07-14T19:18:18.885600,14.97218137,.0001393,97.8845,27.8938,103.7552,256.3824,0,U,31598,999,3392,.1244E-3,.1379E-4,0
COSMOS 2428,2007-029A,2026-07-14T16:23:56.181696,14.12934086,.000721,70.9382,296.7461,82.3000,277.8939,0,U,31792,999,98203,.14769E-3,.227E-5,0
SL-16 R/B,2007-029B,2026-07-14T14:53:47.381856,14.14851481,.0001974,70.9745,265.5606,256.1675,210.9434,0,U,31793,999,98332,.10513E-3,.155E-5,0
KORONAS-FOTON,2009-003A,2026-07-14T20:17:24.619776,15.46292603,.0012226,82.4307,143.3960,63.5053,296.7448,0,U,33504,999,96537,.14626E-3,.7263E-4,0
CZ-2C R/B,2011-030B,2026-07-14T20:47:07.017216,14.81531981,.0050843,97.8670,150.7563,297.2604,116.0528,0,U,37731,999,80892,.68502E-4,.493E-5,0
H-2A R/B,2012-025E,2026-07-14T20:26:09.206016,14.95837063,.0042478,98.4847,173.2831,256.2784,103.3704,0,U,38341,999,76722,.50699E-4,.504E-5,0
SHIJIAN-16 (SJ-16),2013-057A,2026-07-14T20:29:54.182976,14.92669919,.0015811,74.9738,304.2799,165.5107,194.6538,0,U,39358,999,69047,.78414E-4,.781E-5,0
SL-4 R/B,2014-021B,2026-07-14T20:41:38.952096,15.42479101,.0089687,51.6065,75.1365,207.2592,152.3671,0,U,39679,999,67588,.13163E-3,.6234E-4,0
ALOS-2,2014-029A,2026-07-14T20:50:50.513280,14.79472053,.000158,97.9233,292.6365,90.5675,269.5718,0,U,39766,999,65567,.48092E-4,.308E-5,0
YAOGAN-29,2015-069A,2026-07-14T20:08:54.450240,14.83106355,.000072,98.0021,224.5143,14.5866,345.5368,0,U,41038,999,57472,.52889E-4,.377E-5,0
ASTRO-H (HITOMI),2016-012A,2026-07-14T12:32:32.222688,15.10631139,.000961,30.9983,257.6328,168.5633,191.5225,0,U,41337,999,57142,.75498E-4,.1376E-4,0
HXMT (HUIYAN),2017-034A,2026-07-14T21:23:09.276576,15.18686914,.0032329,43.0154,28.7538,318.9121,40.9294,0,U,42758,999,50187,.11685E-3,.2252E-4,0
SAOCOM 1A,2018-076A,2026-07-14T19:34:07.816800,14.82148986,.0001472,97.8881,22.1626,87.3109,272.8273,0,U,43641,999,42019,.10244E-3,.763E-5,0
H-2A R/B,2018-084L,2026-07-14T15:23:31.470144,15.46187332,.002059,98.8535,80.5497,302.6906,57.2352,0,U,43682,999,42536,.24249E-3,.11882E-3,0
SAOCOM 1B,2020-059A,2026-07-14T20:19:03.977184,14.82157516,.0001534,97.8886,21.2896,80.3553,279.7833,0,U,46265,999,31758,-.6163E-5,-.101E-5,0
CSS (TIANHE),2021-035A,2026-07-14T19:55:43.110912,15.58084611,.0002257,41.4689,154.0450,301.6080,58.4538,0,U,48274,999,29748,.14734E-4,.81E-5,0
COSMOS 2550,2021-056A,2026-07-14T20:49:55.675200,15.33825705,.0008497,67.1434,16.1731,270.4478,89.5703,0,U,48865,999,28296,.92941E-4,.2867E-4,0
CZ-2C R/B,2022-058K,2026-07-13T23:14:35.910816,15.63792673,.00303572,50.1857,23.9648,17.4301,342.7709,0,U,52794,999,22983,.29650931E-3,.28571E-3,0
CZ-2C R/B,2022-132E,2026-07-14T13:36:05.548896,15.74923166,.0009584,97.2887,203.8820,345.3501,14.7485,0,U,54039,999,21025,.32388E-3,.48024E-3,0
GSLV R/B,2022-138AN,2026-07-14T20:27:51.424128,14.97381639,.0023587,87.3817,123.6945,53.3291,307.0104,0,U,54149,999,20295,.1074E-3,.1284E-4,0
XRISM,2023-137A,2026-07-14T09:05:04.102944,15.12665675,.0007882,31.0007,183.4361,238.2154,121.7717,0,U,57800,999,15698,.10577E-3,.1995E-4,0
ACS3,2024-077B,2026-07-14T16:20:03.391584,13.95287602,.01251,97.1736,108.3757,37.2913,323.6859,0,U,59588,999,11187,.14287E-2,.2035E-4,0
SPACEMOBILE-003,2024-163A,2026-07-14T11:46:11.481024,15.20702842,.000471,52.9669,183.8848,191.1614,168.9277,0,U,61045,999,10192,.39467E-4,.552E-5,0
SPACEMOBILE-005,2024-163B,2026-07-14T09:47:43.181952,15.20719732,.00086722,52.9761,184.2104,193.5101,166.5662,0,U,61046,999,10190,.65581849E-4,.1133E-4,0
SPACEMOBILE-001,2024-163C,2026-07-14T14:29:16.218816,15.20740619,.0007257,52.9737,183.0227,191.6918,168.3908,0,U,61047,999,10193,.2193E-4,.161E-5,0
SPACEMOBILE-002,2024-163D,2026-07-14T06:12:53.332704,15.20781814,.00060297,52.9771,184.6470,188.6826,171.4064,0,U,61048,999,10188,.25611359E-3,.5394E-4,0
SPACEMOBILE-004,2024-163E,2026-07-12T09:38:01.727232,15.20795560,.0006853,52.9682,192.9673,216.7757,143.2768,0,U,61049,999,10160,.58302E-3,.12717E-3,0
CZ-8A R/B,2025-231K,2026-07-14T13:58:58.221120,14.30162108,.0116561,50.0043,282.7651,320.4534,38.7920,0,U,66004,999,3886,.36055E-4,-.63E-6,0
SZ-21 MODULE,2025-246C,2026-07-14T05:55:25.983264,15.78746533,.00080868,41.4712,138.4953,214.4776,145.5545,0,U,66515,999,3801,.19572685E-3,.35282E-3,0
SPACEMOBILE-006,2025-309A,2026-07-14T08:31:40.410912,15.18652187,.00101784,52.9935,207.1822,212.4448,147.5920,0,U,67232,999,3072,.42569365E-4,.571E-5,0
