COSMO-SKYMED 1          
1 31598U 07023A   26195.80438525  .00001379  00000+0  12440-3 0  9999
2 31598  97.8845  27.8938 0001393 103.7552 256.3824 14.97218137 33925
COSMOS 2428             
1 31792U 07029A   26195.68328914  .00000227  00000+0  14769-3 0  9994
2 31792  70.9382 296.7461 0007210  82.3000 277.8939 14.12934086982036
SL-16 R/B               
1 31793U 07029B   26195.62068729  .00000155  00000+0  10513-3 0  9997
2 31793  70.9745 265.5606 0001974 256.1675 210.9434 14.14851481983325
KORONAS-FOTON           
1 33504U 09003A   26195.84542384  .00007263  00000+0  14626-3 0  9997
2 33504  82.4307 143.3960 0012226  63.5053 296.7448 15.46292603965370
CZ-2C R/B               
1 37731U 11030B   26195.86605344  .00000493  00000+0  68502-4 0  9995
2 37731  97.8670 150.7563 0050843 297.2604 116.0528 14.81531981808928
H-2A R/B                
1 38341U 12025E   26195.85149544  .00000504  00000+0  50699-4 0  9993
2 38341  98.4847 173.2831 0042478 256.2784 103.3704 14.95837063767223
SHIJIAN-16 (SJ-16)      
1 39358U 13057A   26195.85409934  .00000781  00000+0  78414-4 0  9992
2 39358  74.9738 304.2799 0015811 165.5107 194.6538 14.92669919690471
SL-4 R/B                
1 39679U 14021B   26195.86225639  .00006234  00000+0  13163-3 0  9997
2 39679  51.6065  75.1365 0089687 207.2592 152.3671 15.42479101675884
ALOS-2                  
1 39766U 14029A   26195.86864020  .00000308  00000+0  48092-4 0  9991
2 39766  97.9233 292.6365 0001580  90.5675 269.5718 14.79472053655674
YAOGAN-29               
1 41038U 15069A   26195.83951910  .00000377  00000+0  52889-4 0  9998
2 41038  98.0021 224.5143 0000720  14.5866 345.5368 14.83106355574723
ASTRO-H (HITOMI)        
1 41337U 16012A   26195.52259517  .00001376  00000+0  75498-4 0  9990
2 41337  30.9983 257.6328 0009610 168.5633 191.5225 15.10631139571427
HXMT (HUIYAN)           
1 42758U 17034A   26195.89107959  .00002252  00000+0  11685-3 0  9996
2 42758  43.0154  28.7538 0032329 318.9121  40.9294 15.18686914501870
SAOCOM 1A               
1 43641U 18076A   26195.81536825  .00000763  00000+0  10244-3 0  9990
2 43641  97.8881  22.1626 0001472  87.3109 272.8273 14.82148986420190
H-2A R/B                
1 43682U 18084L   26195.64133646  .00011882  00000+0  24249-3 0  9993
2 43682  98.8535  80.5497 0020590 302.6906  57.2352 15.46187332425362
SAOCOM 1B               
1 46265U 20059A   26195.84657381 -.00000101  00000+0 -61630-5 0  9998
2 46265  97.8886  21.2896 0001534  80.3553 279.7833 14.82157516317589
CSS (TIANHE)            
1 48274U 21035A   26195.83036008  .00000810  00000+0  14734-4 0  9998
2 48274  41.4689 154.0450 0002257 301.6080  58.4538 15.58084611297484
COSMOS 2550             
1 48865U 21056A   26195.86800550  .00002867  00000+0  92941-4 0  9991
2 48865  67.1434  16.1731 0008497 270.4478  89.5703 15.33825705282965
CZ-2C R/B               
1 52794U 22058K   26194.96847119  .00028571  00000+0  29651-3 0  9999
2 52794  50.1857  23.9648 0030357  17.4301 342.7709 15.63792673229836
CZ-2C R/B               
1 54039U 22132E   26195.56673089  .00048024  00000+0  32388-3 0  9992
2 54039  97.2887 203.8820 0009584 345.3501  14.7485 15.74923166210257
GSLV R/B                
1 54149U 22138AN  26195.85267852  .00001284  00000+0  10740-3 0  9994
2 54149  87.3817 123.6945 0023587  53.3291 307.0104 14.97381639202951
XRISM                   
1 57800U 23137A   26195.37851971  .00001995  00000+0  10577-3 0  9996
2 57800  31.0007 183.4361 0007882 238.2154 121.7717 15.12665675156988
ACS3                    
1 59588U 24077B   26195.68059481  .00002035  00000+0  14287-2 0  9992
2 59588  97.1736 108.3757 0125100  37.2913 323.6859 13.95287602111872
SPACEMOBILE-003         
1 61045U 24163A   26195.49041066  .00000552  00000+0  39467-4 0  9999
2 61045  52.9669 183.8848 0004710 191.1614 168.9277 15.20702842101924
SPACEMOBILE-005         
1 61046U 24163B   26195.40813868  .00001133  00000+0  65582-4 0  9991
2 61046  52.9761 184.2104 0008672 193.5101 166.5662 15.20719732101902
SPACEMOBILE-001         
1 61047U 24163C   26195.60365994  .00000161  00000+0  21930-4 0  9995
2 61047  52.9737 183.0227 0007257 191.6918 168.3908 15.20740619101936
SPACEMOBILE-002         
1 61048U 24163D   26195.25895061  .00005394  00000+0  25611-3 0  9992
2 61048  52.9771 184.6470 0006029 188.6826 171.4064 15.20781814101886
SPACEMOBILE-004         
1 61049U 24163E   26193.40140888  .00012717  00000+0  58302-3 0  9998
2 61049  52.9682 192.9673 0006853 216.7757 143.2768 15.20795560101607
CZ-8A R/B               
1 66004U 25231K   26195.58261830 -.00000063  00000+0  36055-4 0  9997
2 66004  50.0043 282.7651 0116561 320.4534  38.7920 14.30162108 38862
SZ-21 MODULE            
1 66515U 25246C   26195.24682851  .00035282  00000+0  19573-3 0  9998
2 66515  41.4712 138.4953 0008086 214.4776 145.5545 15.78746533 38010
SPACEMOBILE-006         
1 67232U 25309A   26195.35532883  .00000571  00000+0  42569-4 0  9991
2 67232  52.9935 207.1822 0010178 212.4448 147.5920 15.18652187 30723
